OBJECT_NAME,OBJECT_ID,EPOCH,MEAN_MOTION,ECCENTRICITY,INCLINATION,RA_OF_ASC_NODE,ARG_OF_PERICENTER,MEAN_ANOMALY,EPHEMERIS_TYPE,CLASSIFICATION_TYPE,NORAD_CAT_ID,ELEMENT_SET_NO,REV_AT_EPOCH,BSTAR,MEAN_MOTION_DOT,MEAN_MOTION_DDOT
SPACEMOBILE-008,2026-139A,2026-07-14T03:53:03.928128,15.12801197,.0005033,52.9946,140.0988,54.0321,306.1136,0,U,69589,999,406,.10933E-4,-.107E-5,0
SPACEMOBILE-009,2026-139B,2026-07-14T03:55:47.184384,15.12694533,.0005276,52.9938,140.1052,49.9484,310.1969,0,U,69590,999,406,.13084E-4,-.7E-6,0
SPACEMOBILE-010,2026-139C,2026-07-14T04:00:06.264288,15.12526359,.0005195,52.9945,140.1266,41.7586,318.3801,0,U,69591,999,407,.19806E-4,.48E-6,0
